NORAD_CAT_ID,OBJECT_NAME,OBJECT_TYPE,EPOCH,MEAN_MOTION,ECCENTRICITY,INCLINATION,RA_OF_ASC_NODE,ARG_OF_PERICENTER,MEAN_ANOMALY,BSTAR,MEAN_MOTION_DOT,MEAN_MOTION_DDOT,TLE_LINE0,TLE_LINE1,TLE_LINE2,SEMIMAJOR_AXIS,PERIOD,APOGEE,PERIGEE,DECAYED
53247.0,STARLINK-4061,PAYLOAD,2023-06-04 11:37:54,15.088443,0.0001241,53.2165,49.7975,95.4269,264.6865,0.00029577,4.423e-05,0.0,0 STARLINK-4061,1 53247U 22086F   23155.48466031  .00004423  00000-0  29577-3 0  9993,2 53247  53.2165  49.7975 0001241  95.4269 264.6865 15.08844300 48955,6917.867,95.437,540.591,538.874,0.0
53247.0,STARLINK-4061,PAYLOAD,2023-06-04 16:24:04,15.08844425,0.0001243,53.2163,48.9058,97.934,262.1793,0.00028101,4.188e-05,0.0,0 STARLINK-4061,1 53247U 22086F   23155.68338033  .00004188  00000-0  28101-3 0  9995,2 53247  53.2163  48.9058 0001243  97.9340 262.1793 15.08844425 48484,6917.867,95.437,540.592,538.872,0.0
53247.0,STARLINK-4061,PAYLOAD,2023-06-04 21:10:13,15.08843429,0.0001188,53.2165,48.0135,98.0301,262.0826,0.00021959,3.209e-05,0.0,0 STARLINK-4061,1 53247U 22086F   23155.88210053  .00003209  00000-0  21959-3 0  9995,2 53247  53.2165  48.0135 0001188  98.0301 262.0826 15.08843429 49019,6917.87,95.437,540.557,538.913,0.0
53247.0,STARLINK-4061,PAYLOAD,2023-06-05 01:56:22,15.08851249,0.0001187,53.2164,47.1212,98.9591,261.1535,0.00036397,5.511e-05,0.0,0 STARLINK-4061,1 53247U 22086F   23156.08081753  .00005511  00000-0  36397-3 0  9991,2 53247  53.2164  47.1212 0001187  98.9591 261.1535 15.08851249 49042,6917.846,95.437,540.532,538.89,0.0
53247.0,STARLINK-4061,PAYLOAD,2023-06-05 19:25:37,15.08840144,0.0001258,53.2162,43.8489,120.6873,239.4243,1.9517e-05,2.3e-07,0.0,0 STARLINK-4061,1 53247U 22086F   23156.80945845  .00000023  00000-0  19517-4 0  9991,2 53247  53.2162  43.8489 0001258 120.6873 239.4243 15.08840144 49152,6917.88,95.438,540.615,538.875,0.0
53247.0,STARLINK-4061,PAYLOAD,2023-06-06 00:11:46,15.08847042,0.0001225,53.2167,42.9568,113.2463,246.8658,9.7617e-05,1.266e-05,0.0,0 STARLINK-4061,1 53247U 22086F   23157.00817634  .00001266  00000-0  97617-4 0  9995,2 53247  53.2167  42.9568 0001225 113.2463 246.8658 15.08847042 48685,6917.859,95.437,540.571,538.876,0.0
53247.0,STARLINK-4061,PAYLOAD,2023-06-06 11:19:28,15.08841568,0.0001232,53.2166,40.8762,100.1965,259.9167,5.0215e-05,5.11e-06,0.0,0 STARLINK-4061,1 53247U 22086F   23157.47185954  .00000511  00000-0  50215-4 0  9994,2 53247  53.2166  40.8762 0001232 100.1965 259.9167 15.08841568 49258,6917.876,95.437,540.593,538.888,0.0
53247.0,STARLINK-4061,PAYLOAD,2023-06-06 17:41:01,15.08839283,0.0001166,53.2169,39.6865,102.5162,257.5961,4.6275e-05,4.49e-06,0.0,0 STARLINK-4061,1 53247U 22086F   23157.73682096  .00000449  00000-0  46275-4 0  9993,2 53247  53.2169  39.6865 0001166 102.5162 257.5961 15.08839283 49293,6917.883,95.438,540.554,538.941,0.0
53247.0,STARLINK-4061,PAYLOAD,2023-06-07 01:37:59,15.08813066,0.0001056,53.2188,38.1984,107.5736,252.5372,-0.00023721,-4.058e-05,0.0,0 STARLINK-4061,1 53247U 22086F   23158.06804848 -.00004058  00000-0 -23721-3 0  9993,2 53247  53.2188  38.1984 0001056 107.5736 252.5372 15.08813066 48842,6917.963,95.439,540.558,539.097,0.0
53247.0,STARLINK-4061,PAYLOAD,2023-06-07 11:10:17,15.08827294,0.0001095,53.2195,36.4209,71.5752,288.5359,-0.00016699,-2.943e-05,0.0,0 STARLINK-4061,1 53247U 22086F   23158.46548222 -.00002943  00000-0 -16699-3 0  9995,2 53247  53.2195  36.4209 0001095  71.5752 288.5359 15.08827294 49407,6917.919,95.438,540.542,539.027,0.0
53247.0,STARLINK-4061,PAYLOAD,2023-06-07 17:31:49,15.08837416,9.85e-05,53.2179,35.2281,84.4369,275.6736,2.8991e-05,1.74e-06,0.0,0 STARLINK-4061,1 53247U 22086F   23158.73043533  .00000174  00000-0  28991-4 0  9991,2 53247  53.2179  35.2281 0000985  84.4369 275.6736 15.08837416 48941,6917.888,95.438,540.435,539.072,0.0
53247.0,STARLINK-4061,PAYLOAD,2023-06-07 22:17:59,15.08836964,7.99e-05,53.217,34.337,81.661,278.4472,0.00024303,3.582e-05,0.0,0 STARLINK-4061,1 53247U 22086F   23158.92915560  .00003582  00000-0  24303-3 0  9998,2 53247  53.2170  34.3370 0000799  81.6610 278.4472 15.08836964 49476,6917.89,95.438,540.307,539.202,0.0
53247.0,STARLINK-4061,PAYLOAD,2023-06-08 15:47:13,15.08853954,9.83e-05,53.217,31.0655,73.695,286.415,0.00064927,0.00010064,0.0,0 STARLINK-4061,1 53247U 22086F   23159.65779509  .00010064  00000-0  64927-3 0  9999,2 53247  53.2170  31.0655 0000983  73.6950 286.4150 15.08853954 49086,6917.838,95.437,540.383,539.023,0.0
53247.0,STARLINK-4061,PAYLOAD,2023-06-08 22:08:45,15.08879114,8.78e-05,53.217,29.8757,70.2768,289.8319,0.001239,0.00019507,0.0,0 STARLINK-4061,1 53247U 22086F   23159.92274970  .00019507  00000-0  12390-2 0  9998,2 53247  53.2170  29.8757 0000878  70.2768 289.8319 15.08879114 49122,6917.761,95.435,540.233,539.018,0.0
53247.0,STARLINK-4061,PAYLOAD,2023-06-09 21:59:32,15.08859642,0.0001243,53.217,25.4128,88.9428,271.1707,0.00046945,7.195e-05,0.0,0 STARLINK-4061,1 53247U 22086F   23160.91634490  .00007195  00000-0  46945-3 0  9990,2 53247  53.2170  25.4128 0001243  88.9428 271.1707 15.08859642 49772,6917.82,95.436,540.545,538.825,0.0
53247.0,STARLINK-4061,PAYLOAD,2023-06-10 07:31:51,15.08845536,0.0001021,53.2167,23.63,88.8151,271.2958,0.00053004,8.159e-05,0.0,0 STARLINK-4061,1 53247U 22086F   23161.31378566  .00008159  00000-0  53004-3 0  9999,2 53247  53.2167  23.6300 0001021  88.8151 271.2958 15.08845536 49334,6917.863,95.437,540.435,539.022,0.0
53247.0,STARLINK-4061,PAYLOAD,2023-06-10 13:53:23,15.08841735,0.0001111,53.2168,22.4404,88.8657,271.2462,0.00027198,4.044e-05,0.0,0 STARLINK-4061,1 53247U 22086F   23161.57874659  .00004044  00000-0  27198-3 0  9995,2 53247  53.2168  22.4404 0001111  88.8657 271.2462 15.08841735 49874,6917.875,95.437,540.509,538.972,0.0
53247.0,STARLINK-4061,PAYLOAD,2023-06-10 15:28:46,15.08841173,0.000112,53.2171,22.1425,89.1318,270.9802,-6.6527e-06,-3.94e-06,0.0,0 STARLINK-4061,1 53247U 22086F   23161.64498654 -.00000394  00000-0 -66527-5 0  9997,2 53247  53.2171  22.1425 0001120  89.1318 270.9802 15.08841173 49382,6917.877,95.437,540.517,538.967,0.0
53247.0,STARLINK-4061,PAYLOAD,2023-06-10 21:50:19,15.08850093,0.0001057,53.217,20.9536,90.385,269.7263,6.3929e-05,7.3e-06,0.0,0 STARLINK-4061,1 53247U 22086F   23161.90994280  .00000730  00000-0  63929-4 0  9996,2 53247  53.2170  20.9536 0001057  90.3850 269.7263 15.08850093 49922,6917.85,95.437,540.446,538.983,0.0
53247.0,STARLINK-4061,PAYLOAD,2023-06-11 07:22:37,15.08847066,0.000105,53.2172,19.1698,94.0254,266.0858,7.7031e-05,9.39e-06,0.0,0 STARLINK-4061,1 53247U 22086F   23162.30738294  .00000939  00000-0  77031-4 0  9992,2 53247  53.2172  19.1698 0001050  94.0254 266.0858 15.08847066 49987,6917.859,95.437,540.45,538.997,0.0
53247.0,STARLINK-4061,PAYLOAD,2023-06-11 23:16:29,15.0884897,0.0001064,53.2171,16.1963,92.2132,267.8982,0.00018842,2.713e-05,0.0,0 STARLINK-4061,1 53247U 22086F   23162.96978095  .00002713  00000-0  18842-3 0  9995,2 53247  53.2171  16.1963 0001064  92.2132 267.8982 15.08848970 49586,6917.853,95.437,540.454,538.982,0.0
53247.0,STARLINK-4061,PAYLOAD,2023-06-12 07:13:24,15.08852012,0.0001383,53.2174,14.7103,88.6151,271.5,0.00022237,3.254e-05,0.0,0 STARLINK-4061,1 53247U 22086F   23163.30097910  .00003254  00000-0  22237-3 0  9996,2 53247  53.2174  14.7103 0001383  88.6151 271.5000 15.08852012 50131,6917.844,95.437,540.665,538.752,0.0
53247.0,STARLINK-4061,PAYLOAD,2023-06-12 23:07:16,15.08832855,7.76e-05,53.2179,11.7348,95.9091,264.1989,-0.00011466,-2.112e-05,0.0,0 STARLINK-4061,1 53247U 22086F   23163.96338756 -.00002112  00000-0 -11466-3 0  9990,2 53247  53.2179  11.7348 0000776  95.9091 264.1989 15.08832855 49734,6917.902,95.438,540.304,539.23,0.0
53247.0,STARLINK-4061,PAYLOAD,2023-06-13 13:25:45,15.08834729,0.0001425,53.2181,9.0577,86.7813,273.3342,4.6346e-05,4.5e-06,0.0,0 STARLINK-4061,1 53247U 22086F   23164.55955198  .00000450  00000-0  46346-4 0  9998,2 53247  53.2181   9.0577 0001425  86.7813 273.3342 15.08834729 50327,6917.897,95.438,540.747,538.776,0.0
53247.0,STARLINK-4061,PAYLOAD,2023-06-13 19:47:17,15.0884017,0.0001164,53.2168,7.8696,92.6017,267.5108,0.00014327,1.993e-05,0.0,0 STARLINK-4061,1 53247U 22086F   23164.82450927  .00001993  00000-0  14327-3 0  9994,2 53247  53.2168   7.8696 0001164  92.6017 267.5108 15.08840170 49861,6917.88,95.438,540.55,538.94,0.0
53247.0,STARLINK-4061,PAYLOAD,2023-06-14 08:30:23,15.08833185,0.0001245,53.2168,5.4908,117.2863,242.8256,0.00040462,6.156e-05,0.0,0 STARLINK-4061,1 53247U 22086F   23165.35443585  .00006156  00000-0  40462-3 0  9990,2 53247  53.2168   5.4908 0001245 117.2863 242.8256 15.08833185 49941,6917.901,95.438,540.627,538.905,0.0
53247.0,STARLINK-4061,PAYLOAD,2023-06-14 13:16:32,15.08834796,0.0001243,53.2164,4.5987,94.179,265.9344,0.00024464,3.607e-05,0.0,0 STARLINK-4061,1 53247U 22086F   23165.55315501  .00003607  00000-0  24464-3 0  9990,2 53247  53.2164   4.5987 0001243  94.1790 265.9344 15.08834796 50477,6917.896,95.438,540.621,538.901,0.0
53247.0,STARLINK-4061,PAYLOAD,2023-06-14 19:38:05,15.08836249,0.0001247,53.2165,3.4087,93.9699,266.1435,0.00022938,3.364e-05,0.0,0 STARLINK-4061,1 53247U 22086F   23165.81811592  .00003364  00000-0  22938-3 0  9994,2 53247  53.2165   3.4087 0001247  93.9699 266.1435 15.08836249 50510,6917.892,95.438,540.62,538.894,0.0
53247.0,STARLINK-4061,PAYLOAD,2023-06-15 13:07:19,15.08844831,0.0001269,53.2163,0.137,90.5071,269.6066,0.00021826,3.188e-05,0.0,0 STARLINK-4061,1 53247U 22086F   23166.54675305  .00003188  00000-0  21826-3 0  9994,2 53247  53.2163   0.1370 0001269  90.5071 269.6066 15.08844831 50624,6917.866,95.437,540.608,538.853,0.0
53247.0,STARLINK-4061,PAYLOAD,2023-06-15 19:28:51,15.08848629,0.0001231,53.2166,358.9476,91.5664,268.5469,0.00019773,2.861e-05,0.0,0 STARLINK-4061,1 53247U 22086F   23166.81170989  .00002861  00000-0  19773-3 0  9997,2 53247  53.2166 358.9476 0001231  91.5664 268.5469 15.08848629 50169,6917.854,95.437,540.571,538.867,0.0
